{
    "links": {
        "self": "http://www.neowsapp.com/rest/v1/neo/3684345?api_key=iIulBulltgU6a56xZRHN4H3l9WmuAYTsLGpBGhQ2"
    },
    "id": "3684345",
    "neo_reference_id": "3684345",
    "name": "(2014 QL362)",
    "designation": "2014 QL362",
    "nasa_jpl_url": "http://ssd.jpl.nasa.gov/sbdb.cgi?sstr=3684345",
    "absolute_magnitude_h": 22.7,
    "estimated_diameter": {
        "kilometers": {
            "estimated_diameter_min": 0.0766575574,
            "estimated_diameter_max": 0.1714115092
        },
        "meters": {
            "estimated_diameter_min": 76.6575573531,
            "estimated_diameter_max": 171.4115092306
        },
        "miles": {
            "estimated_diameter_min": 0.0476327831,
            "estimated_diameter_max": 0.1065101409
        },
        "feet": {
            "estimated_diameter_min": 251.5011804664,
            "estimated_diameter_max": 562.3737359442
        }
    },
    "is_potentially_hazardous_asteroid": false,
    "close_approach_data": [
        {
            "close_approach_date": "1921-10-23",
            "close_approach_date_full": "1921-Oct-23 06:49",
            "epoch_date_close_approach": -1520788260000,
            "relative_velocity": {
                "kilometers_per_second": "12.515007446",
                "kilometers_per_hour": "45054.0268056259",
                "miles_per_hour": "27994.8201559735"
            },
            "miss_distance": {
                "astronomical": "0.1022428589",
                "lunar": "39.7724721121",
                "kilometers": "15295313.914150543",
                "miles": "9504067.3567937734"
            },
            "orbiting_body": "Venus"
        },
        {
            "close_approach_date": "1928-10-04",
            "close_approach_date_full": "1928-Oct-04 19:43",
            "epoch_date_close_approach": -1301458620000,
            "relative_velocity": {
                "kilometers_per_second": "12.8488828076",
                "kilometers_per_hour": "46255.9781072164",
                "miles_per_hour": "28741.6659522312"
            },
            "miss_distance": {
                "astronomical": "0.1344707066",
                "lunar": "52.3091048674",
                "kilometers": "20116531.284754942",
                "miles": "12499832.9153925196"
            },
            "orbiting_body": "Venus"
        },
        {
            "close_approach_date": "2014-07-07",
            "close_approach_date_full": "2014-Jul-07 22:31",
            "epoch_date_close_approach": 1404772260000,
            "relative_velocity": {
                "kilometers_per_second": "9.5664512467",
                "kilometers_per_hour": "34439.2244879608",
                "miles_per_hour": "21399.1947936443"
            },
            "miss_distance": {
                "astronomical": "0.1918903427",
                "lunar": "74.6453433103",
                "kilometers": "28706386.541490049",
                "miles": "17837321.4692947162"
            },
            "orbiting_body": "Earth"
        },
        {
            "close_approach_date": "2018-07-30",
            "close_approach_date_full": "2018-Jul-30 17:26",
            "epoch_date_close_approach": 1532971560000,
            "relative_velocity": {
                "kilometers_per_second": "23.1931186131",
                "kilometers_per_hour": "83495.2270071136",
                "miles_per_hour": "51880.6870256145"
            },
            "miss_distance": {
                "astronomical": "0.3138019195",
                "lunar": "122.0689466855",
                "kilometers": "46944098.759111465",
                "miles": "29169710.351469617"
            },
            "orbiting_body": "Earth"
        },
        {
            "close_approach_date": "2176-01-16",
            "close_approach_date_full": "2176-Jan-16 18:52",
            "epoch_date_close_approach": 6502099920000,
            "relative_velocity": {
                "kilometers_per_second": "13.449910883",
                "kilometers_per_hour": "48419.6791788302",
                "miles_per_hour": "30086.1056542015"
            },
            "miss_distance": {
                "astronomical": "0.0658878313",
                "lunar": "25.6303663757",
                "kilometers": "9856679.221399331",
                "miles": "6124656.4640835278"
            },
            "orbiting_body": "Earth"
        }
    ],
    "orbital_data": {
        "orbit_id": "5",
        "orbit_determination_date": "2017-04-06 08:39:05",
        "first_observation_date": "2014-08-20",
        "last_observation_date": "2014-08-29",
        "data_arc_in_days": 9,
        "observations_used": 15,
        "orbit_uncertainty": "8",
        "minimum_orbit_intersection": ".0480757",
        "jupiter_tisserand_invariant": "5.093",
        "epoch_osculation": "2456893.5",
        "eccentricity": ".4447412854604457",
        "semi_major_axis": "1.22768384010889",
        "inclination": "10.98954912264009",
        "ascending_node_longitude": "307.0013247090716",
        "orbital_period": "496.8533653931464",
        "perihelion_distance": ".6816821509198456",
        "perihelion_argument": "250.635529569149",
        "aphelion_distance": "1.773685529297934",
        "perihelion_time": "2456781.752011988391",
        "mean_anomaly": "80.96810545370245",
        "mean_motion": ".724559850198744",
        "equinox": "J2000",
        "orbit_class": {
            "orbit_class_type": "APO",
            "orbit_class_description": "Near-Earth asteroid orbits which cross the Earth’s orbit similar to that of 1862 Apollo",
            "orbit_class_range": "a (semi-major axis) > 1.0 AU; q (perihelion) < 1.017 AU"
        }
    },
    "is_sentry_object": false
}